{
  "norad_id": 41167,
  "name": "KENT RIDGE 1",
  "history": [
    {
      "epoch": "2026-03-28T19:10:44.952960",
      "apogee_km": 503.8243484867171,
      "perigee_km": 492.1539121732758,
      "latitude_deg": 13.432003388171264,
      "longitude_deg": 173.41661439999007,
      "semi_major_axis_km": 6876.126130329996,
      "eccentricity": 0.00084862,
      "inclination_deg": 14.9795,
      "raan_deg": 143.5944,
      "arg_perigee_deg": 185.2483,
      "mean_anomaly_deg": 174.7751,
      "mean_motion_rev_day": 15.22604154
    }
  ]
}