{"fetched_at":"2026-03-29T16:36:15Z","count":15609,"tles":[{"name":"KENT RIDGE 1","line1":"1 41167U 15077B   26087.79913140  .00005028  00000+0  17798-3 0  9995","line2":"2 41167  14.9795 143.5944 0008486 185.2483 174.7751 15.22604154568824","category":"Other"}]}